COSMOS 2433 (720)       
1 32275C 07052A   20323.99979167 -.00000000  00000-0  00000-0 0  3232
2 32275  66.0206  23.7800 0004948 238.3452 273.1617  2.13104192    14
COSMOS 2432 (719)       
1 32276C 07052B   20323.99979167 -.00000000  00000-0  00000-0 0  3233
2 32276  66.0333  23.8714 0009827 316.1286 145.1742  2.13103437    10
COSMOS 2434 (721)       
1 32393C 07065A   20323.99979167 -.00000000  00000-0  00000-0 0  3237
2 32393  64.5236 261.1187 0001684  75.7113 323.6613  2.13103049    15
COSMOS 2436 (723)       
1 32395C 07065C   19331.99979167 -.00000002  00000-0  00000-0 0  3317
2 32395  64.6628 273.4180 0015428 335.5981 236.1653  2.13280743    12
COSMOS 2456 (730)       
1 36111C 09070A   20323.99979167  .00000000  00000-0  00000-0 0  3236
2 36111  64.2460 140.7979 0002193 358.0673 214.6380  2.13099212    14
COSMOS 2457 (733)       
1 36112C 09070B   19331.99979167  .00000001  00000-0  00000-0 0  3314
2 36112  64.1929 152.9203 0006907 146.4578 270.9332  2.13101641    11
COSMOS 2459 (731)       
1 36400C 10007A   20323.99979167 -.00000000  00000-0  00000-0 0  3230
2 36400  65.9163  22.6969 0018227   2.3479   7.3760  2.13103659    18
COSMOS 2460 (732)       
1 36402C 10007C   20323.99979167 -.00000000  00000-0  00000-0 0  3232
2 36402  65.9035  22.6572 0002150 224.2602  88.2677  2.13101195    17
COSMOS 2464 (736)       
1 37139C 10041C   20323.99979167 -.00000000  00000-0  00000-0 0  3238
2 37139  64.1231 260.4807 0027566   7.7404 254.0928  2.13100707    19
COSMOS 2476 (744)       
1 37867C 11064A   20323.99979167  .00000000  00000-0  00000-0 0  3231
2 37867  64.5432 141.9280 0018368 231.5383 241.6724  2.13101772    14
COSMOS 2477 (745)       
1 37868C 11064B   20323.99979167  .00000000  00000-0  00000-0 0  3232
2 37868  64.5513 141.9863 0015887 231.5411  60.1143  2.13101745    16
COSMOS 2475 (743)       
1 37869C 11064C   20323.99979167  .00000000  00000-0  00000-0 0  3233
2 37869  64.5586 141.9892 0019152 256.1180 353.0833  2.13101978    12
COSMOS 2485 (747)       
1 39155C 13019A   20323.99979167  .00000000  00000-0  00000-0 0  3235
2 39155  64.7103 142.2310 0019033 226.9043 290.8599  2.13101806    16
COSMOS 2492 (754)       
1 39620C 14012A   20323.99979167  .00000000  00000-0  00000-0 0  3236
2 39620  65.7924  22.4186 0013141 314.7774 237.9319  2.13103120    19
COSMOS 2500 (755)       
1 40001C 14032A   20323.99979167  .00000000  00000-0  00000-0 0  3233
2 40001  65.7330  22.3225 0008397 210.7050 202.1530  2.13102428    16
COSMOS 2501 (702)       
1 40315C 14075A   20323.99979167 -.00000000  00000-0  00000-0 0  3239
2 40315  63.8377 261.3675 0016758 213.9578   4.5296  2.13101290    17
COSMOS 2514 (751)       
1 41330C 16008A   20323.99979167  .00000000  00000-0  00000-0 0  3234
2 41330  65.5352  22.1567 0012150 216.7396  18.8587  2.13102678    13
COSMOS 2516 (753)       
1 41554C 16032A   20323.99979167 -.00000000  00000-0  00000-0 0  3230
2 41554  64.0616 261.4821 0013091 224.0258 262.6743  2.13101754    10
COSMOS 2522 (752)       
1 42939C 17055A   20323.99979167 -.00000000  00000-0  00000-0 0  3234
2 42939  64.2952 261.7078 0008367 254.4635  98.8434  2.13102039    19
COSMOS 2527 (756)       
1 43508C 18053A   20323.99979167  .00000000  00000-0  00000-0 0  3235
2 43508  64.8746 142.1109 0006445 212.0735 173.1954  2.13102519    19
COSMOS 2529 (757)       
1 43687C 18086A   20323.99979167 -.00000000  00000-0  00000-0 0  3230
2 43687  64.5091 261.8689 0011062 274.6278  34.2691  2.13102067    19
COSMOS 2534 (758)       
1 44299C 19030A   20323.99979167 -.00000000  00000-0  00000-0 0  3230
2 44299  64.5794 261.7002 0014209 290.6556 153.2065  2.13101938    13
COSMOS 2544 (759)       
1 44850C 19088A   20323.99979167  .00000000  00000-0  00000-0 0  3235
2 44850  64.8590 141.9755 0009261 258.3855 170.8224  2.13102238    18
COSMOS 2545 (760)       
1 45358C 20018A   19320.99979167 -.00000000  00000-0  00000-0 0  3207
2 45358  65.8070  35.0079 0005134  75.6998 123.1059  2.13101688    16
